{"type": "FeatureCollection", "features": [{"type": "Feature", "properties": {"norad_id": 28054, "name": "DMSP 5D-3 F16 (USA 172)", "group": "weather", "lat": 33.70629069826427, "lon": -168.8988836698541, "alt_km": 846.7298244618578, "timestamp": "2025-12-13T13:34:34.721189+00:00", "meta": {"OBJECT_NAME": "DMSP 5D-3 F16 (USA 172)", "OBJECT_ID": "2003-048A", "EPOCH": "2025-12-13T01:06:39.006720", "MEAN_MOTION": 14.14424303, "ECCENTRICITY": 0.00064903, "INCLINATION": 99.0047, "RA_OF_ASC_NODE": 4.5057, "ARG_OF_PERICENTER": 319.9597, "MEAN_ANOMALY": 62.5213, "EPHEMERIS_TYPE": 0, "CLASSIFICATION_TYPE": "U", "NORAD_CAT_ID": 28054, "ELEMENT_SET_NO": 999, "REV_AT_EPOCH": 14317, "BSTAR": 0.00013231216, "MEAN_MOTION_DOT": 2.08e-06, "MEAN_MOTION_DDOT": 0}, "tle": {"line1": "1 28054U 03048A   25347.04628480  .00000208  00000+0  13231-3 0  9999", "line2": "2 28054  99.0047   4.5057 0006490 319.9597  62.5213 14.14424303143174"}}, "geometry": {"type": "Point", "coordinates": [-168.8988836698541, 33.70629069826427]}}, {"type": "Feature", "properties": {"norad_id": 28912, "name": "METEOSAT-9 (MSG-2)", "group": "weather", "lat": -8.900099907283952, "lon": -28.05375445257848, "alt_km": 35784.65964613281, "timestamp": "2025-12-13T13:34:34.721237+00:00", "meta": {"OBJECT_NAME": "METEOSAT-9 (MSG-2)", "OBJECT_ID": "2005-049B", "EPOCH": "2025-12-12T20:32:45.552192", "MEAN_MOTION": 1.00276669, "ECCENTRICITY": 0.00035766, "INCLINATION": 8.9401, "RA_OF_ASC_NODE": 55.9765, "ARG_OF_PERICENTER": 190.0838, "MEAN_ANOMALY": 189.6047, "EPHEMERIS_TYPE": 0, "CLASSIFICATION_TYPE": "U", "NORAD_CAT_ID": 28912, "ELEMENT_SET_NO": 999, "REV_AT_EPOCH": 513, "BSTAR": 0, "MEAN_MOTION_DOT": 1.32e-06, "MEAN_MOTION_DDOT": 0}, "tle": {"line1": "1 28912U 05049B   25346.85608278  .00000132  00000+0  00000+0 0  9998", "line2": "2 28912   8.9401  55.9765 0003576 190.0838 189.6047  1.00276669  5134"}}, "geometry": {"type": "Point", "coordinates": [-28.05375445257848, -8.900099907283952]}}, {"type": "Feature", "properties": {"norad_id": 29522, "name": "DMSP 5D-3 F17 (USA 191)", "group": "weather", "lat": 80.9025441895131, "lon": -80.92979875454374, "alt_km": 839.9370363732187, "timestamp": "2025-12-13T13:34:34.721251+00:00", "meta": {"OBJECT_NAME": "DMSP 5D-3 F17 (USA 191)", "OBJECT_ID": "2006-050A", "EPOCH": "2025-12-12T23:35:11.144832", "MEAN_MOTION": 14.14919687, "ECCENTRICITY": 0.00094223, "INCLINATION": 98.7394, "RA_OF_ASC_NODE": 352.3668, "ARG_OF_PERICENTER": 224.0774, "MEAN_ANOMALY": 135.9649, "EPHEMERIS_TYPE": 0, "CLASSIFICATION_TYPE": "U", "NORAD_CAT_ID": 29522, "ELEMENT_SET_NO": 999, "REV_AT_EPOCH": 98608, "BSTAR": 0.00016176488, "MEAN_MOTION_DOT": 2.69e-06, "MEAN_MOTION_DDOT": 0}, "tle": {"line1": "1 29522U 06050A   25346.98276788  .00000269  00000+0  16176-3 0  9996", "line2": "2 29522  98.7394 352.3668 0009422 224.0774 135.9649 14.14919687986086"}}, "geometry": {"type": "Point", "coordinates": [-80.92979875454374, 80.9025441895131]}}, {"type": "Feature", "properties": {"norad_id": 32958, "name": "FENGYUN 3A", "group": "weather", "lat": 4.675906272048306, "lon": 107.79002879030347, "alt_km": 833.1449436704634, "timestamp": "2025-12-13T13:34:34.721263+00:00", "meta": {"OBJECT_NAME": "FENGYUN 3A", "OBJECT_ID": "2008-026A", "EPOCH": "2025-12-12T19:50:11.184576", "MEAN_MOTION": 14.19514788, "ECCENTRICITY": 0.000791, "INCLINATION": 98.6698, "RA_OF_ASC_NODE": 286.3515, "ARG_OF_PERICENTER": 310.0338, "MEAN_ANOMALY": 50.0144, "EPHEMERIS_TYPE": 0, "CLASSIFICATION_TYPE": "U", "NORAD_CAT_ID": 32958, "ELEMENT_SET_NO": 999, "REV_AT_EPOCH": 90896, "BSTAR": 0.00012017926, "MEAN_MOTION_DOT": 2.1e-06, "MEAN_MOTION_DDOT": 0}, "tle": {"line1": "1 32958U 08026A   25346.82651834  .00000210  00000+0  12018-3 0  9997", "line2": "2 32958  98.6698 286.3515 0007910 310.0338  50.0144 14.19514788908964"}}, "geometry": {"type": "Point", "coordinates": [107.79002879030347, 4.675906272048306]}}, {"type": "Feature", "properties": {"norad_id": 35491, "name": "GOES 14", "group": "weather", "lat": 1.1978958488558065, "lon": 175.8497794908653, "alt_km": 35834.3257617102, "timestamp": "2025-12-13T13:34:34.721275+00:00", "meta": {"OBJECT_NAME": "GOES 14", "OBJECT_ID": "2009-033A", "EPOCH": "2025-12-12T23:13:46.003584", "MEAN_MOTION": 1.00096095, "ECCENTRICITY": 7.598e-05, "INCLINATION": 1.2034, "RA_OF_ASC_NODE": 85.3926, "ARG_OF_PERICENTER": 163.8223, "MEAN_ANOMALY": 71.235, "EPHEMERIS_TYPE": 0, "CLASSIFICATION_TYPE": "U", "NORAD_CAT_ID": 35491, "ELEMENT_SET_NO": 999, "REV_AT_EPOCH": 472, "BSTAR": 0, "MEAN_MOTION_DOT": -1.9e-07, "MEAN_MOTION_DDOT": 0}, "tle": {"line1": "1 35491U 09033A   25346.96789356 -.00000019  00000+0  00000+0 0  9999", "line2": "2 35491   1.2034  85.3926 0000759 163.8223  71.2350  1.00096095  4724"}}, "geometry": {"type": "Point", "coordinates": [175.8497794908653, 1.1978958488558065]}}, {"type": "Feature", "properties": {"norad_id": 35951, "name": "DMSP 5D-3 F18 (USA 210)", "group": "weather", "lat": -44.99437465740849, "lon": -27.041553564885742, "alt_km": 852.1622726029682, "timestamp": "2025-12-13T13:34:34.721286+00:00", "meta": {"OBJECT_NAME": "DMSP 5D-3 F18 (USA 210)", "OBJECT_ID": "2009-057A", "EPOCH": "2025-12-12T22:30:56.947104", "MEAN_MOTION": 14.14769269, "ECCENTRICITY": 0.00120424, "INCLINATION": 98.8835, "RA_OF_ASC_NODE": 323.3379, "ARG_OF_PERICENTER": 62.2303, "MEAN_ANOMALY": 298.009, "EPHEMERIS_TYPE": 0, "CLASSIFICATION_TYPE": "U", "NORAD_CAT_ID": 35951, "ELEMENT_SET_NO": 999, "REV_AT_EPOCH": 83325, "BSTAR": 0.00021930326, "MEAN_MOTION_DOT": 3.78e-06, "MEAN_MOTION_DDOT": 0}, "tle": {"line1": "1 35951U 09057A   25346.93815911  .00000378  00000+0  21930-3 0  9996", "line2": "2 35951  98.8835 323.3379 0012042  62.2303 298.0090 14.14769269833259"}}, "geometry": {"type": "Point", "coordinates": [-27.041553564885742, -44.99437465740849]}}, {"type": "Feature", "properties": {"norad_id": 36411, "name": "EWS-G2 (GOES 15)", "group": "weather", "lat": -0.8027639308850547, "lon": -12.399653497764733, "alt_km": 35785.326448802436, "timestamp": "2025-12-13T13:34:34.721298+00:00", "meta": {"OBJECT_NAME": "EWS-G2 (GOES 15)", "OBJECT_ID": "2010-008A", "EPOCH": "2025-12-12T22:19:55.396992", "MEAN_MOTION": 1.00269872, "ECCENTRICITY": 0.0005713, "INCLINATION": 0.8146, "RA_OF_ASC_NODE": 86.0682, "ARG_OF_PERICENTER": 174.731, "MEAN_ANOMALY": 217.4571, "EPHEMERIS_TYPE": 0, "CLASSIFICATION_TYPE": "U", "NORAD_CAT_ID": 36411, "ELEMENT_SET_NO": 999, "REV_AT_EPOCH": 5777, "BSTAR": 0, "MEAN_MOTION_DOT": 5.1e-07, "MEAN_MOTION_DDOT": 0}, "tle": {"line1": "1 36411U 10008A   25346.93050228  .00000051  00000+0  00000+0 0  9997", "line2": "2 36411   0.8146  86.0682 0005713 174.7310 217.4571  1.00269872 57773"}}, "geometry": {"type": "Point", "coordinates": [-12.399653497764733, -0.8027639308850547]}}, {"type": "Feature", "properties": {"norad_id": 36744, "name": "COMS 1", "group": "weather", "lat": -1.7255948661634528, "lon": 54.35046488490403, "alt_km": 35789.73500061518, "timestamp": "2025-12-13T13:34:34.721309+00:00", "meta": {"OBJECT_NAME": "COMS 1", "OBJECT_ID": "2010-032A", "EPOCH": "2025-12-12T15:21:38.695680", "MEAN_MOTION": 1.0026781, "ECCENTRICITY": 7.129e-05, "INCLINATION": 4.3408, "RA_OF_ASC_NODE": 78.0019, "ARG_OF_PERICENTER": 200.2431, "MEAN_ANOMALY": 161.9119, "EPHEMERIS_TYPE": 0, "CLASSIFICATION_TYPE": "U", "NORAD_CAT_ID": 36744, "ELEMENT_SET_NO": 999, "REV_AT_EPOCH": 4922, "BSTAR": 0, "MEAN_MOTION_DOT": -3.34e-06, "MEAN_MOTION_DDOT": 0}, "tle": {"line1": "1 36744U 10032A   25346.64003120 -.00000334  00000+0  00000+0 0  9995", "line2": "2 36744   4.3408  78.0019 0000712 200.2431 161.9119  1.00267810 49222"}}, "geometry": {"type": "Point", "coordinates": [54.35046488490403, -1.7255948661634528]}}, {"type": "Feature", "properties": {"norad_id": 37214, "name": "FENGYUN 3B", "group": "weather", "lat": -77.37768594729161, "lon": 72.53954146536061, "alt_km": 846.5915441822981, "timestamp": "2025-12-13T13:34:34.721320+00:00", "meta": {"OBJECT_NAME": "FENGYUN 3B", "OBJECT_ID": "2010-059A", "EPOCH": "2025-12-13T00:53:24.160416", "MEAN_MOTION": 14.14790654, "ECCENTRICITY": 0.00220484, "INCLINATION": 98.9909, "RA_OF_ASC_NODE": 27.0161, "ARG_OF_PERICENTER": 356.9666, "MEAN_ANOMALY": 111.4241, "EPHEMERIS_TYPE": 0, "CLASSIFICATION_TYPE": "U", "NORAD_CAT_ID": 37214, "ELEMENT_SET_NO": 999, "REV_AT_EPOCH": 78110, "BSTAR": 0.00017710493, "MEAN_MOTION_DOT": 2.97e-06, "MEAN_MOTION_DDOT": 0}, "tle": {"line1": "1 37214U 10059A   25347.03708519  .00000297  00000+0  17710-3 0  9992", "line2": "2 37214  98.9909  27.0161 0022048 356.9666 111.4241 14.14790654781109"}}, "geometry": {"type": "Point", "coordinates": [72.53954146536061, -77.37768594729161]}}, {"type": "Feature", "properties": {"norad_id": 37849, "name": "SUOMI NPP", "group": "weather", "lat": 45.26655988280115, "lon": 113.87129059801543, "alt_km": 821.4883402953228, "timestamp": "2025-12-13T13:34:34.721330+00:00", "meta": {"OBJECT_NAME": "SUOMI NPP", "OBJECT_ID": "2011-061A", "EPOCH": "2025-12-12T23:24:50.834304", "MEAN_MOTION": 14.19514309, "ECCENTRICITY": 0.00022553, "INCLINATION": 98.7773, "RA_OF_ASC_NODE": 284.315, "ARG_OF_PERICENTER": 119.9127, "MEAN_ANOMALY": 240.2274, "EPHEMERIS_TYPE": 0, "CLASSIFICATION_TYPE": "U", "NORAD_CAT_ID": 37849, "ELEMENT_SET_NO": 999, "REV_AT_EPOCH": 73202, "BSTAR": 9.8690097e-05, "MEAN_MOTION_DOT": 1.64e-06, "MEAN_MOTION_DDOT": 0}, "tle": {"line1": "1 37849U 11061A   25346.97558836  .00000164  00000+0  98690-4 0  9997", "line2": "2 37849  98.7773 284.3150 0002255 119.9127 240.2274 14.19514309732023"}}, "geometry": {"type": "Point", "coordinates": [113.87129059801543, 45.26655988280115]}}]}